LEMUR-2-AMANDA-SVANTE   
1 48269U 21034B   26068.77637527  .00030872  00000+0  11134-2 0  9996
2 48269  97.5829 144.8625 0002703 205.4721 154.6385 15.28469003265849
STARLINK-36542          
1 67445U 26008A   26068.39299931  .00031588  00000+0  11507-2 0  9999
2 67445  42.9989 207.1817 0001334 182.2029 177.8817 15.27630907  9525
